IRIDIUM 921             
1 24873U 97034E   24203.74562034  .00042480  00000+0  99652-3 0  9990
2 24873  86.3790 270.9724 0006003 118.1346 242.0517 15.41867123480509
IRIDIUM 26              
1 24903U 97043A   24204.15958453  .00000831  00000+0  27687-3 0  9997
2 24903  86.3935 249.0789 0002463  94.0796 266.0683 14.36446282409827
IRIDIUM 22              
1 24907U 97043E   24203.75432370  .00000819  00000+0  27917-3 0  9993
2 24907  86.3938 252.5140 0002217  92.5367 267.6083 14.35332432409368
DUMMY MASS 1            
1 24925U 97048A   24203.73189687  .00001014  00000+0  11216-3 0  9999
2 24925  86.3346 288.0275 0004976 223.1380 136.9455 14.86296897456032
DUMMY MASS 2            
1 24926U 97048B   24203.77414565  .00001023  00000+0  11379-3 0  9990
2 24926  86.3346 289.5577 0005481 240.0253 120.0428 14.86054598455823
IRIDIUM 29              
1 24944U 97051A   24203.67668935  .00000919  00000+0  31110-3 0  9993
2 24944  86.3949 282.4446 0001963  95.6670 264.4751 14.35785192405830
IRIDIUM 33              
1 24946U 97051C   24204.22427367  .00000656  00000+0  22616-3 0  9998
2 24946  86.3862 281.4642 0010037  79.3611 280.8715 14.34425975405447
IRIDIUM 28              
1 24948U 97051E   24204.21487625  .00000921  00000+0  30597-3 0  9994
2 24948  86.3951 279.9214 0002646  93.0489 267.1011 14.36740737406523
